*******************************************************************************
Ephemeris / WWW_USER Wed Apr  4 23:32:20 2018 Pasadena, USA      / Horizons    
*******************************************************************************
Target body name: 90482 Orcus (2004 DW)           {source: JPL#29}
Center body name: Solar System Barycenter (0)     {source: DE431}
Center-site name: BODY CENTER
*******************************************************************************
Start time      : A.D. 2000-Jan-01 00:00:00.0000 TDB
Stop  time      : A.D. 2001-Jan-01 00:00:00.0000 TDB
Step-size       : 7200 minutes
*******************************************************************************
Center geodetic : 0.00000000,0.00000000,0.0000000 {E-lon(deg),Lat(deg),Alt(km)}
Center cylindric: 0.00000000,0.00000000,0.0000000 {E-lon(deg),Dxy(km),Dz(km)}
Center radii    : (undefined)                                                  
Small perturbers: Yes                             {source: SB431-N16}
Output units    : AU-D                                                         
Output type     : GEOMETRIC cartesian states
Output format   : 2 (position and velocity)
Reference frame : ICRF/J2000.0                                                 
Coordinate systm: Ecliptic and Mean Equinox of Reference Epoch                 
*******************************************************************************
Initial IAU76/J2000 heliocentric ecliptic osculating elements (au, days, deg.):
  EPOCH=  2456044.5 ! 2012-Apr-27.00 (TDB)         Residual RMS= .15539        
   EC= .2239836494653336   QR= 30.48746746731042   TP= 2413995.4750650763      
   OM= 268.4546910398095   W=  73.65343381519499   IN= 20.54858482478484       
  Equivalent ICRF heliocentric equatorial cartesian coordinates (au, au/d):
   X=-4.049867964603111E+01  Y= 2.500666391625204E+01  Z=-5.925446354852525E+00
  VX=-9.577823330623901E-04 VY=-1.647504241883546E-03 VZ=-1.084049635946669E-03
Asteroid physical parameters (km, seconds, rotational period in hours):        
   GM= n.a.                RAD= n.a.               ROTPER= 13.188              
   H= 2.2                  G= .150                 B-V= n.a.                   
                           ALBEDO= n.a.            STYP= n.a.                  
*******************************************************************************
JDTDB
   X     Y     Z
   VX    VY    VZ
*******************************************************************************
$$SOE
2451729.500000000 = A.D. 2000-Jul-04 00:00:00.0000 TDB 
  -3.540667062406592E+01  2.839456628171166E+01 -1.354485155627719E+01
  -1.401424595721114E-03 -1.656478746859507E-03 -5.103537973026186E-04
2451734.500000000 = A.D. 2000-Jul-09 00:00:00.0000 TDB 
  -3.541367651274598E+01  2.838628289829722E+01 -1.354740285306750E+01
  -1.400930865226508E-03 -1.656874595450944E-03 -5.101649148928109E-04
2451739.500000000 = A.D. 2000-Jul-14 00:00:00.0000 TDB 
  -3.542067993260747E+01  2.837799753599182E+01 -1.354995320538685E+01
  -1.400437068300536E-03 -1.657270303248939E-03 -5.099760089150304E-04
2451744.500000000 = A.D. 2000-Jul-19 00:00:00.0000 TDB 
  -3.542768088331830E+01  2.836971019549937E+01 -1.355250261311739E+01
  -1.399943204962619E-03 -1.657665870262090E-03 -5.097870793756587E-04
2451749.500000000 = A.D. 2000-Jul-24 00:00:00.0000 TDB 
  -3.543467936454644E+01  2.836142087752382E+01 -1.355505107614134E+01
  -1.399449275232271E-03 -1.658061296498709E-03 -5.095981262812195E-04
2451754.500000000 = A.D. 2000-Jul-29 00:00:00.0000 TDB 
  -3.544167537596000E+01  2.835312958276900E+01 -1.355759859434095E+01
  -1.398955279129018E-03 -1.658456581967119E-03 -5.094091496382344E-04
2451759.500000000 = A.D. 2000-Aug-03 00:00:00.0000 TDB 
  -3.544866891722715E+01  2.834483631193875E+01 -1.356014516759848E+01
  -1.398461216672602E-03 -1.658851726675711E-03 -5.092201494532927E-04
2451764.500000000 = A.D. 2000-Aug-08 00:00:00.0000 TDB 
  -3.545565998801617E+01  2.833654106573684E+01 -1.356269079579626E+01
  -1.397967087881887E-03 -1.659246730632671E-03 -5.090311257326663E-04
2451769.500000000 = A.D. 2000-Aug-13 00:00:00.0000 TDB 
  -3.546264858799544E+01  2.832824384486699E+01 -1.356523547881660E+01
  -1.397472892776600E-03 -1.659641593846408E-03 -5.088420784829249E-04
2451774.500000000 = A.D. 2000-Aug-18 00:00:00.0000 TDB 
  -3.546963471683343E+01  2.831994465003293E+01 -1.356777921654188E+01
  -1.396978631376196E-03 -1.660036316325273E-03 -5.086530077105348E-04
2451779.500000000 = A.D. 2000-Aug-23 00:00:00.0000 TDB 
  -3.547661837419874E+01  2.831164348193829E+01 -1.357032200885451E+01
  -1.396484303700127E-03 -1.660430898077629E-03 -5.084639134219529E-04
2451784.500000000 = A.D. 2000-Aug-28 00:00:00.0000 TDB 
  -3.548359955976001E+01  2.830334034128667E+01 -1.357286385563692E+01
  -1.395989909767922E-03 -1.660825339111669E-03 -5.082747956237289E-04
2451789.500000000 = A.D. 2000-Sep-02 00:00:00.0000 TDB 
  -3.549057827318602E+01  2.829503522878167E+01 -1.357540475677157E+01
  -1.395495449598757E-03 -1.661219639436376E-03 -5.080856543219674E-04
2451794.500000000 = A.D. 2000-Sep-07 00:00:00.0000 TDB 
  -3.549755451414563E+01  2.828672814512682E+01 -1.357794471214097E+01
  -1.395000923212137E-03 -1.661613799060000E-03 -5.078964895231793E-04
2451799.500000000 = A.D. 2000-Sep-12 00:00:00.0000 TDB 
  -3.550452828230782E+01  2.827841909102556E+01 -1.358048372162765E+01
  -1.394506330627452E-03 -1.662007817991049E-03 -5.077073012337283E-04
2451804.500000000 = A.D. 2000-Sep-17 00:00:00.0000 TDB 
  -3.551149957734160E+01  2.827010806718138E+01 -1.358302178511417E+01
  -1.394011671864083E-03 -1.662401696238053E-03 -5.075180894599620E-04
2451809.500000000 = A.D. 2000-Sep-22 00:00:00.0000 TDB 
  -3.551846839891620E+01  2.826179507429764E+01 -1.358555890248312E+01
  -1.393516946941255E-03 -1.662795433809475E-03 -5.073288542081820E-04
2451814.500000000 = A.D. 2000-Sep-27 00:00:00.0000 TDB 
  -3.552543474670080E+01  2.825348011307772E+01 -1.358809507361713E+01
  -1.393022155878807E-03 -1.663189030714206E-03 -5.071395954847982E-04
2451819.500000000 = A.D. 2000-Oct-02 00:00:00.0000 TDB 
  -3.553239862036477E+01  2.824516318422494E+01 -1.359063029839886E+01
  -1.392527298695974E-03 -1.663582486960774E-03 -5.069503132960846E-04
2451824.500000000 = A.D. 2000-Oct-07 00:00:00.0000 TDB 
  -3.553936001957759E+01  2.823684428844253E+01 -1.359316457671100E+01
  -1.392032375412180E-03 -1.663975802557863E-03 -5.067610076483392E-04
2451829.500000000 = A.D. 2000-Oct-12 00:00:00.0000 TDB 
  -3.554631894400876E+01  2.822852342643375E+01 -1.359569790843626E+01
  -1.391537386046848E-03 -1.664368977514186E-03 -5.065716785478440E-04
2451834.500000000 = A.D. 2000-Oct-17 00:00:00.0000 TDB 
  -3.555327539332797E+01  2.822020059890178E+01 -1.359823029345740E+01
  -1.391042330619437E-03 -1.664762011838461E-03 -5.063823260008941E-04
2451839.500000000 = A.D. 2000-Oct-22 00:00:00.0000 TDB 
  -3.556022936720490E+01  2.821187580654974E+01 -1.360076173165720E+01
  -1.390547209149475E-03 -1.665154905539392E-03 -5.061929500138165E-04
2451844.500000000 = A.D. 2000-Oct-27 00:00:00.0000 TDB 
  -3.556718086530942E+01  2.820354905008073E+01 -1.360329222291848E+01
  -1.390052021656472E-03 -1.665547658625722E-03 -5.060035505929146E-04
2451849.500000000 = A.D. 2000-Nov-01 00:00:00.0000 TDB 
  -3.557412988731145E+01  2.819522033019782E+01 -1.360582176712408E+01
  -1.389556768159965E-03 -1.665940271106210E-03 -5.058141277444935E-04
2451854.500000000 = A.D. 2000-Nov-06 00:00:00.0000 TDB 
  -3.558107643288104E+01  2.818688964760401E+01 -1.360835036415689E+01
  -1.389061448679516E-03 -1.666332742989626E-03 -5.056246814748636E-04
2451859.500000000 = A.D. 2000-Nov-11 00:00:00.0000 TDB 
  -3.558802050168830E+01  2.817855700300225E+01 -1.361087801389981E+01
  -1.388566063234874E-03 -1.666725074284803E-03 -5.054352117903931E-04
2451864.500000000 = A.D. 2000-Nov-16 00:00:00.0000 TDB 
  -3.559496209340347E+01  2.817022239709546E+01 -1.361340471623578E+01
  -1.388070611845151E-03 -1.667117265000469E-03 -5.052457186971970E-04
2451869.500000000 = A.D. 2000-Nov-21 00:00:00.0000 TDB 
  -3.560190120769688E+01  2.816188583058652E+01 -1.361593047104777E+01
  -1.387575094530105E-03 -1.667509315145494E-03 -5.050562022016284E-04
2451874.500000000 = A.D. 2000-Nov-26 00:00:00.0000 TDB 
  -3.560883784423893E+01  2.815354730417827E+01 -1.361845527821880E+01
  -1.387079511309309E-03 -1.667901224728720E-03 -5.048666623099630E-04
2451879.500000000 = A.D. 2000-Dec-01 00:00:00.0000 TDB 
  -3.561577200270016E+01  2.814520681857350E+01 -1.362097913763189E+01
  -1.386583862202347E-03 -1.668292993759008E-03 -5.046770990284726E-04
2451884.500000000 = A.D. 2000-Dec-06 00:00:00.0000 TDB 
  -3.562270368275117E+01  2.813686437447492E+01 -1.362350204917012E+01
  -1.386088147228849E-03 -1.668684622245200E-03 -5.044875123634547E-04
2451889.500000000 = A.D. 2000-Dec-11 00:00:00.0000 TDB 
  -3.562963288406269E+01  2.812851997258526E+01 -1.362602401271656E+01
  -1.385592366408317E-03 -1.669076110196302E-03 -5.042979023210765E-04
2451894.500000000 = A.D. 2000-Dec-16 00:00:00.0000 TDB 
  -3.563655960630554E+01  2.812017361360717E+01 -1.362854502815437E+01
  -1.385096519760398E-03 -1.669467457621199E-03 -5.041082689076210E-04
2451899.500000000 = A.D. 2000-Dec-21 00:00:00.0000 TDB 
  -3.564348384915062E+01  2.811182529824325E+01 -1.363106509536670E+01
  -1.384600607304702E-03 -1.669858664528836E-03 -5.039186121293268E-04
2451904.500000000 = A.D. 2000-Dec-26 00:00:00.0000 TDB 
  -3.565040561226894E+01  2.810347502719607E+01 -1.363358421423673E+01
  -1.384104629060854E-03 -1.670249730928183E-03 -5.037289319924269E-04
2451909.500000000 = A.D. 2000-Dec-31 00:00:00.0000 TDB 
  -3.565732489533162E+01  2.809512280116813E+01 -1.363610238464770E+01
  -1.383608585048352E-03 -1.670640656828173E-03 -5.035392285031134E-04
